STARLINK-33744          
1 63471U 25070M   25110.16668981 -.01038234  00000+0 -66614-2 0  9996
2 63471  43.0006 291.7601 0001977 257.5380  43.1465 15.77678262  3429
STARLINK-33766          
1 63472U 25070N   25109.91668981 -.00951028  00000+0 -60305-2 0  9993
2 63472  43.0002 293.2795 0001711 258.0868  62.9358 15.78124025  3413
STARLINK-33765          
1 63473U 25070P   25109.91668981 -.00959941  00000+0 -61070-2 0  9996
2 63473  43.0002 293.2737 0001597 258.3623  64.9071 15.78077068  3412
STARLINK-33735          
1 63474U 25070Q   25109.91668981 -.00979466  00000+0 -62629-2 0  9992
2 63474  43.0003 293.2678 0001711 256.9266  68.6737 15.78016993  3402
STARLINK-33731          
1 63475U 25070R   25109.91668981 -.00978725  00000+0 -62731-2 0  9994
2 63475  43.0004 293.2624 0001807 258.1976  69.6266 15.77961428  3402
STARLINK-33718          
1 63476U 25070S   25109.91668981 -.00991150  00000+0 -63751-2 0  9995
2 63476  43.0004 293.2571 0001658 257.0626  72.9598 15.77919388  3401
STARLINK-33630          
1 63477U 25070T   25109.91668981 -.01033509  00000+0 -65836-2 0  9998
2 63477  43.0005 293.2512 0001905 270.3900  62.0936 15.77827129  3414
STARLINK-33695          
1 63478U 25070U   25109.91668981 -.01050908  00000+0 -67253-2 0  9996
2 63478  43.0005 293.2455 0001664 257.5252  77.2150 15.77767341  3404
STARLINK-33713          
1 63479U 25070V   25109.91668981 -.01065608  00000+0 -68558-2 0  9999
2 63479  43.0006 293.2349 0001573 255.8840  83.1133 15.77683934  3403
STARLINK-33721          
1 63480U 25070W   25109.91668981 -.01061089  00000+0 -68015-2 0  9998
2 63480  43.0003 293.2399 0001872 257.6031  79.1465 15.77752448  3401
STARLINK-33639          
1 63481U 25070X   25109.91668981 -.01073348  00000+0 -69622-2 0  9995
2 63481  43.0006 293.2233 0001495 259.6341  83.9037 15.77521737  3402
STARLINK-33667          
1 63482U 25070Y   25109.91668981 -.01082734  00000+0 -70012-2 0  9990
2 63482  43.0004 293.2288 0001837 258.3481  82.9317 15.77608822  3403
STARLINK-33688          
1 63483U 25070Z   25109.91668981 -.01273531  00000+0 -68600-2 0  9998
2 63483  43.0002 292.9049 0001617 257.9720 211.9819 15.81992160  3407
STARLINK-33700          
1 63484U 25070AA  25109.91668981 -.01176584  00000+0 -62341-2 0  9995
2 63484  43.0001 292.9154 0001572 259.8035 205.6852 15.82127320  3400
STARLINK-33687          
1 63485U 25070AB  25108.66668981 -.01944093  10525-2 -49425-2 0  9999
2 63485  42.9979 299.8501 0001772 261.4728 201.4967 15.94659712  3202
STARLINK-33716          
1 63486U 25070AC  25109.91668981 -.01174914  00000+0 -71575-2 0  9991
2 63486  42.9998 293.0209 0001749 263.6944 159.6299 15.79128646  3418
STARLINK-33754          
1 63487U 25070AD  25109.91668981 -.01160400  00000+0 -60994-2 0  9990
2 63487  42.9999 292.9261 0001703 258.5178 202.8314 15.82259470  3400
POSAT-2                 
1 63488U 25009DR  25109.92591017  .00011018  00000+0  82245-3 0  9990
2 63488  97.5203 190.2617 0008810 143.5197 216.6630 15.02971110  2889
2025-052BK              
1 63489U 25052BK  25110.21374917  .00008071  00000+0  41477-3 0  9998
2 63489  97.4434   4.8686 0006534 191.3280 168.7807 15.16720588  5596
HYDRA-W                 
1 63490U 25052BL  25110.17889160  .00043950  00000+0  20230-2 0  9994
2 63490  97.4370   4.9073 0012550 176.5720 183.5603 15.20104940  5599
2025-052BM              
1 63491U 25052BM  25110.17313495  .00079453  00000+0  35346-2 0  9999
2 63491  97.4368   4.9153 0012981 176.0477 184.0864 15.21085316  5599
HADES-ICM               
1 63492U 25052BN  25109.58952185  .00036474  00000+0  16973-2 0  9999
2 63492  97.4377   4.3202 0012574 183.2139 176.9018 15.19773966  5506
STARLINK-33828          
1 63493U 25071A   25109.91668981 -.01080040  00000+0 -68665-2 0  9992
2 63493  53.1544 212.4023 0000918  59.9222 113.9422 15.78219308  3076
STARLINK-33819          
1 63494U 25071B   25109.91668981 -.01082800  00000+0 -68787-2 0  9994
2 63494  53.1540 212.3986 0000974  60.0317 115.6373 15.78242186  3074
STARLINK-33845          
1 63495U 25071C   25109.91668981 -.01094060  00000+0 -69691-2 0  9991
2 63495  53.1541 212.3940 0000928  59.4847 118.4420 15.78208479  3076
STARLINK-33829          
1 63496U 25071D   25109.91668981 -.01098339  00000+0 -70060-2 0  9997
2 63496  53.1541 212.3894 0000899  61.3739 118.6950 15.78188126  3036
STARLINK-33815          
1 63497U 25071E   25109.91668981 -.01105871  00000+0 -70693-2 0  9990
2 63497  53.1544 212.3849 0000968  58.8735 123.4146 15.78157060  3094
STARLINK-33833          
1 63498U 25071F   25109.91668981 -.01111077  00000+0 -71049-2 0  9992
2 63498  53.1540 212.3768 0000880  57.7291 128.4695 15.78162563  3097
STARLINK-33534          
1 63499U 25071G   25109.91668981 -.01111499  00000+0 -71124-2 0  9995
2 63499  53.1540 212.3806 0000980  59.8884 124.4475 15.78147705  3074
STARLINK-33838          
1 63500U 25071H   25109.91668981 -.01139187  00000+0 -73333-2 0  9996
2 63500  53.1540 212.3629 0000899  58.7669 134.0079 15.78080067  2880
STARLINK-33837          
1 63501U 25071J   25109.91668981 -.01125854  00000+0 -72267-2 0  9998
2 63501  53.1540 212.3722 0000886  61.1426 127.4325 15.78112869  3034
STARLINK-33818          
1 63502U 25071K   25109.91668981 -.01176273  00000+0 -76341-2 0  9997
2 63502  53.1540 212.3491 0000873  60.1872 139.2252 15.77985911  3099
STARLINK-33583          
1 63503U 25071L   25109.91668981 -.01133530  00000+0 -72857-2 0  9995
2 63503  53.1539 212.3674 0000932  58.7028 131.9436 15.78100587  3095
STARLINK-33811          
1 63504U 25071M   25109.91668981 -.01149026  00000+0 -74142-2 0  9992
2 63504  53.1539 212.3583 0000951  57.5764 137.4005 15.78049904  3032
STARLINK-33825          
1 63505U 25071N   25109.91668981 -.01162665  00000+0 -75281-2 0  9992
2 63505  53.1538 212.3534 0000907  59.2903 137.9883 15.78005803  3098
STARLINK-33792          
1 63506U 25071P   25109.91668981 -.01198373  00000+0 -78137-2 0  9991
2 63506  53.1540 212.3443 0000904  59.6924 142.0608 15.77934659  3030
STARLINK-33843          
1 63507U 25071Q   25110.16668981 -.01149478  00000+0 -76872-2 0  9997
2 63507  53.1541 211.0917 0001087  70.2437 114.1542 15.77257166  3101
STARLINK-33809          
1 63508U 25071R   25109.91668981 -.01217948  00000+0 -79741-2 0  9995
2 63508  53.1539 212.3353 0000905  61.0076 144.9698 15.77889565  3031
STARLINK-33678          
1 63509U 25071S   25109.91668981 -.01225188  00000+0 -80380-2 0  9992
2 63509  53.1536 212.3310 0000844  60.7496 147.3598 15.77861815  2826
STARLINK-33764          
1 63510U 25071T   25109.91668981 -.01232938  00000+0 -81106-2 0  9992
2 63510  53.1537 212.3264 0000887  63.8470 146.4651 15.77820305  3077
STARLINK-33804          
1 63511U 25071U   25109.91668981 -.01238164  00000+0 -81532-2 0  9993
2 63511  53.1533 212.3215 0000934  59.5569 152.7766 15.77809846  2729
STARLINK-33751          
1 63512U 25071V   25109.91668981 -.01247312  00000+0 -82381-2 0  9992
2 63512  53.1535 212.3173 0000954  60.2106 154.3312 15.77765029  3071
STARLINK-33750          
1 63513U 25071W   25109.91668981 -.01255108  00000+0 -83115-2 0  9991
2 63513  53.1535 212.3126 0000923  60.9931 155.7275 15.77725485  3074
STARLINK-33786          
1 63514U 25071X   25109.91668981 -.01264623  00000+0 -83951-2 0  9992
2 63514  53.1535 212.3079 0000910  59.2441 159.6184 15.77693964  2713
STARLINK-33796          
1 63515U 25071Y   25109.91668981 -.01302844  00000+0 -85293-2 0  9992
2 63515  53.1536 212.2997 0000949  61.1576 161.9516 15.77633787  3090
STARLINK-33785          
1 63516U 25071Z   25109.91668981 -.01249108  00000+0 -82892-2 0  9998
2 63516  53.1537 212.3044 0001052  72.4723 148.4213 15.77663290  3075
STARLINK-33803          
1 63517U 25071AA  25109.91668981 -.01317540  00000+0 -86555-2 0  9995
2 63517  53.1536 212.2949 0000948  59.5310 165.7934 15.77585651  3097
STARLINK-33807          
1 63518U 25071AB  25109.91668981 -.01355340  00000+0 -89683-2 0  9991
2 63518  53.1536 212.2858 0000879  61.9791 167.7182 15.77500754  3098
STARLINK-33787          
1 63519U 25071AC  25109.91668981 -.01339558  00000+0 -88395-2 0  9994
2 63519  53.1535 212.2904 0000923  61.4781 166.1078 15.77530242  2725
SOYUZ-MS 27             
1 63520U 25072A   25109.83885864  .00017165  00000+0  31101-3 0  9997
2 63520  51.6357 236.0368 0005356  56.6188 303.5313 15.49720884  1441
TJS-17                  
1 63524U 25073A   25100.87528880  .00000365 -53871-6  00000+0 0  9995
2 63524  18.9938  88.7815 7324768 179.5370 130.1112  2.26000113    11
CZ-3B R/B               
1 63525U 25073B   25109.89512697  .00107375  45540-6  75741-3 0  9996
2 63525  19.0913  84.6422 7361001 186.3841 152.0280  2.23450896   211
STARLINK-11669 [DTC]    
1 63548U 25075A   25109.91668981 -.00866071  00000+0 -31869-2 0  9998
2 63548  43.0051 309.2401 0001921 267.1101 136.9820 15.89225753  2289
STARLINK-11665 [DTC]    
1 63549U 25075B   25109.91668981 -.00865632  00000+0 -31718-2 0  9994
2 63549  43.0050 309.2368 0002023 271.1646 134.2134 15.89306859  2280
STARLINK-11667 [DTC]    
1 63550U 25075C   25109.91668981 -.00861024  00000+0 -31316-2 0  9991
2 63550  43.0050 309.2320 0001969 267.9331 139.3436 15.89442355  2285
STARLINK-11695 [DTC]    
1 63551U 25075D   25109.91668981 -.00858047  00000+0 -30974-2 0  9992
2 63551  43.0050 309.2269 0001922 266.4266 142.7744 15.89583156  2283
STARLINK-11685 [DTC]    
1 63552U 25075E   25109.91668981 -.00856938  00000+0 -30779-2 0  9993
2 63552  43.0050 309.2237 0001969 267.2404 143.3927 15.89678266  2280
STARLINK-11697 [DTC]    
1 63553U 25075F   25109.91668981 -.00854824  00000+0 -30519-2 0  9998
2 63553  43.0050 309.2195 0001990 268.0037 144.2520 15.89790610  2286
STARLINK-11680 [DTC]    
1 63554U 25075G   25109.91668981 -.00853884  00000+0 -30249-2 0  9994
2 63554  43.0050 309.2142 0002020 267.9375 146.3107 15.89939810  2288
